DONGPO 01               
1 53453U 22098K   26132.84432921  .00050174  00000+0  47478-3 0  9997
2 53453  97.5534 261.7713 0000844 150.6333 209.4975 15.66834594209210
STARLINK-4400           
1 53468U 22099D   26132.82255926 -.00000574  00000+0 -35672-4 0  9995
2 53468  97.5020 253.1832 0000867  25.1250 335.0019 15.05659814205621
STARLINK-4621           
1 53676U 22105AE  26132.42658888 -.00001872  00000+0 -12560-3 0  9996
2 53676  97.5043  12.8048 0004028  47.7258 312.4310 15.05661551202820
SHERPA-LTC2             
1 53754U 22107BG  26132.81863690  .00004380  00000+0  22849-3 0  9993
2 53754  53.2349  10.0103 0397728 127.2053 236.5923 14.69182117197347
CENTISPACE-1 S3         
1 53757U 22108A   26132.84442678  .00000143  00000+0  66872-4 0  9997
2 53757  53.5320 201.4000 0008245 246.7955 113.2152 14.61219259196361
CENTISPACE-1 S4         
1 53758U 22108B   26132.84507778  .00000233  00000+0  83916-4 0  9999
2 53758  53.5295 199.0815 0008002 232.3101 127.7150 14.61892110196398
BLUEWALKER-3            
1 53807U 22111AL  26132.37479839  .00002782  00000+0  84119-4 0  9999
2 53807  53.2287 202.0389 0007381  68.6172 291.5620 15.37834262204692
YUNHAI-1 03             
1 53877U 22115A   26132.84940919  .00000266  00000+0  11387-3 0  9995
2 53877  98.5537 131.4466 0005456 139.5085 220.6506 14.32693213190459
CENTISPACE-1 S5         
1 54020U 22126A   26132.89651031  .00000479  00000+0  12943-3 0  9992
2 54020  55.0001 354.1750 0012337   2.3029 357.8020 14.62948148191879
CENTISPACE-1 S6         
1 54021U 22126B   26132.87238461  .00000375  00000+0  11080-3 0  9995
2 54021  55.0004 355.9746 0014180   1.1495 358.9529 14.62238265191833
OTB-3-GAZELLE           
1 54023U 22127A   26132.68804603  .00000090  00000+0  40247-4 0  9996
2 54023  98.3941 124.9352 0012002 298.8125  61.1859 14.42661224189242
ASO-S                   
1 54029U 22129A   26132.83478002  .00000107  00000+0  37449-4 0  9990
2 54029  98.2756 138.4213 0013876 196.1637 163.9118 14.52043811190298
HJ-2E                   
1 54035U 22132A   26132.84897576  .00004866  00000+0  21618-3 0  9999
2 54035  97.3807 137.8778 0022290 130.1502 230.1691 15.21774079199049
COSMOS 2561             
1 54109U 22137A   26132.87609367  .00009064  00000+0  15847-3 0  9990
2 54109  96.9224 193.2132 0011055 147.6868 212.5064 15.50789865200877
GONETS-M 23             
1 54150U 22139A   26132.84412714  .00000025  00000+0  10747-3 0  9995
2 54150  82.5098  10.2600 0020785 300.8811  59.0224 12.42889175161255
GONETS-M 24             
1 54151U 22139B   26132.89774889  .00000032  00000+0  16042-3 0  9997
2 54151  82.5001   9.3108 0016164 312.2465  47.7243 12.42889783161261
GONETS-M 25             
1 54152U 22139C   26132.88409845  .00000014  00000+0  33768-4 0  9999
2 54152  82.5075   9.9865 0020053 310.0566  49.8754 12.42888987161264
SKIF-D                  
1 54153U 22139D   26132.68196213  .00000031  00000+0  00000+0 0  9997
2 54153  89.9555  96.6784 0007416 214.8823 145.1054  5.00438680 62335
MATS                    
1 54227U 22147A   26132.88291802  .00002776  00000+0  19909-3 0  9990
2 54227  97.6827 134.6390 0011537 325.8100  34.2382 15.05131257192456
JILIN-1 GAOFEN 03D54    
1 54254U 22155D   26132.82751594  .00120446  00000+0  56522-3 0  9999
2 54254  97.6085 281.7274 0001974 165.5103 194.6222 15.82852553194688
EOS-6 (OCEANSAT-3)      
1 54361U 22158A   26132.82761904  .00000144  00000+0  51599-4 0  9999
2 54361  98.3526 231.4947 0002247  88.0550 272.0900 14.47019345182723
DONGPO 09               
1 54685U 22167D   26132.83820821  .00007677  00000+0  22476-3 0  9992
2 54685  97.6875 302.2968 0001476 221.9265 138.1865 15.35540152190022
DONGPO 08               
1 54686U 22167E   26132.88831958  .00006792  00000+0  21598-3 0  9992
2 54686  97.6835 299.6920 0006907 295.0690  64.9834 15.32942408189919
2022-167F               
1 54687U 22167F   26132.87770966  .00095955  00000+0  49181-3 0  9990
2 54687  97.6177 316.7755 0003099 181.4044 178.7215 15.81004630191231
DONGPO 10               
1 54689U 22167H   26132.84801569  .00006985  00000+0  21678-3 0  9999
2 54689  97.6918 301.5185 0004162 227.7432 132.3457 15.33722223189943
JILIN-1 GAOFEN 03D48    
1 54695U 22167P   26132.86294244  .00007252  00000+0  21980-3 0  9998
2 54695  97.6852 300.9013 0005429 234.2749 125.7988 15.34454843189970
STAR VIBE               
1 55009U 23001A   26132.87058012  .00009466  00000+0  22674-3 0  9998
2 55009  97.3195 197.2151 0004655 227.4134 132.6721 15.41634743186784
BRO-8                   
1 55011U 23001C   26132.81616660  .00019312  00000+0  38487-3 0  9994
2 55011  97.3242 197.5467 0004974 234.8471 125.2313 15.46915779186739
CONNECTA T1.2           
1 55012U 23001D   26132.45480618  .00022068  00000+0  42103-3 0  9999
2 55012  97.3298 202.5794 0005957 208.8226 151.2696 15.48146907187018
BIRKELAND               
1 55015U 23001G   26132.85777601  .00007399  00000+0  19091-3 0  9997
2 55015  97.3367 200.7519 0005748 219.4046 140.6782 15.39443387186917
