OBJECT_NAME,OBJECT_ID,EPOCH,MEAN_MOTION,ECCENTRICITY,INCLINATION,RA_OF_ASC_NODE,ARG_OF_PERICENTER,MEAN_ANOMALY,EPHEMERIS_TYPE,CLASSIFICATION_TYPE,NORAD_CAT_ID,ELEMENT_SET_NO,REV_AT_EPOCH,BSTAR,MEAN_MOTION_DOT,MEAN_MOTION_DDOT
DONGPO 01,2022-098K,2026-05-12T20:15:50.043744,15.66834594,.0000844,97.5534,261.7713,150.6333,209.4975,0,U,53453,999,20921,.47478E-3,.50174E-3,0
STARLINK-4400,2022-099D,2026-05-12T19:44:29.120064,15.05659814,.0000867,97.5020,253.1832,25.1250,335.0019,0,U,53468,999,20562,-.35672E-4,-.574E-5,0
STARLINK-4621,2022-105AE,2026-05-12T10:14:17.279232,15.05661551,.0004028,97.5043,12.8048,47.7258,312.4310,0,U,53676,999,20282,-.1256E-3,-.1872E-4,0
SHERPA-LTC2,2022-107BG,2026-05-12T19:38:50.228160,14.69182117,.0397728,53.2349,10.0103,127.2053,236.5923,0,U,53754,999,19734,.22849E-3,.438E-4,0
CENTISPACE-1 S3,2022-108A,2026-05-12T20:15:58.473792,14.61219259,.0008245,53.5320,201.4000,246.7955,113.2152,0,U,53757,999,19636,.66872E-4,.143E-5,0
CENTISPACE-1 S4,2022-108B,2026-05-12T20:16:54.720192,14.61892110,.0008002,53.5295,199.0815,232.3101,127.7150,0,U,53758,999,19639,.83916E-4,.233E-5,0
BLUEWALKER-3,2022-111AL,2026-05-12T08:59:42.580896,15.37834262,.0007381,53.2287,202.0389,68.6172,291.5620,0,U,53807,999,20469,.84119E-4,.2782E-4,0
YUNHAI-1 03,2022-115A,2026-05-12T20:23:08.954016,14.32693213,.0005456,98.5537,131.4466,139.5085,220.6506,0,U,53877,999,19045,.11387E-3,.266E-5,0
CENTISPACE-1 S5,2022-126A,2026-05-12T21:30:58.490784,14.62948148,.0012337,55.0001,354.1750,2.3029,357.8020,0,U,54020,999,19187,.12943E-3,.479E-5,0
CENTISPACE-1 S6,2022-126B,2026-05-12T20:56:14.030304,14.62238265,.001418,55.0004,355.9746,1.1495,358.9529,0,U,54021,999,19183,.1108E-3,.375E-5,0
OTB-3-GAZELLE,2022-127A,2026-05-12T16:30:47.176992,14.42661224,.0012002,98.3941,124.9352,298.8125,61.1859,0,U,54023,999,18924,.40247E-4,.9E-6,0
ASO-S,2022-129A,2026-05-12T20:02:04.993728,14.52043811,.0013876,98.2756,138.4213,196.1637,163.9118,0,U,54029,999,19029,.37449E-4,.107E-5,0
HJ-2E,2022-132A,2026-05-12T20:22:31.505664,15.21774079,.002229,97.3807,137.8778,130.1502,230.1691,0,U,54035,999,19904,.21618E-3,.4866E-4,0
COSMOS 2561,2022-137A,2026-05-12T21:01:34.493088,15.50789865,.0011055,96.9224,193.2132,147.6868,212.5064,0,U,54109,999,20087,.15847E-3,.9064E-4,0
GONETS-M 23,2022-139A,2026-05-12T20:15:32.584896,12.42889175,.0020785,82.5098,10.2600,300.8811,59.0224,0,U,54150,999,16125,.10747E-3,.25E-6,0
GONETS-M 24,2022-139B,2026-05-12T21:32:45.504096,12.42889783,.0016164,82.5001,9.3108,312.2465,47.7243,0,U,54151,999,16126,.16042E-3,.32E-6,0
GONETS-M 25,2022-139C,2026-05-12T21:13:06.106080,12.42888987,.0020053,82.5075,9.9865,310.0566,49.8754,0,U,54152,999,16126,.33768E-4,.14E-6,0
SKIF-D,2022-139D,2026-05-12T16:22:01.528032,5.00438680,.0007416,89.9555,96.6784,214.8823,145.1054,0,U,54153,999,6233,0,.31E-6,0
MATS,2022-147A,2026-05-12T21:11:24.116928,15.05131257,.0011537,97.6827,134.6390,325.8100,34.2382,0,U,54227,999,19245,.19909E-3,.2776E-4,0
JILIN-1 GAOFEN 03D54,2022-155D,2026-05-12T19:51:37.377216,15.82852553,.0001974,97.6085,281.7274,165.5103,194.6222,0,U,54254,999,19468,.56522E-3,.120446E-2,0
EOS-6 (OCEANSAT-3),2022-158A,2026-05-12T19:51:46.285056,14.47019345,.0002247,98.3526,231.4947,88.0550,272.0900,0,U,54361,999,18272,.51599E-4,.144E-5,0
DONGPO 09,2022-167D,2026-05-12T20:07:01.189344,15.35540152,.0001476,97.6875,302.2968,221.9265,138.1865,0,U,54685,999,19002,.22476E-3,.7677E-4,0
DONGPO 08,2022-167E,2026-05-12T21:19:10.811712,15.32942408,.0006907,97.6835,299.6920,295.0690,64.9834,0,U,54686,999,18991,.21598E-3,.6792E-4,0
2022-167F,2022-167F,2026-05-12T21:03:54.114624,15.81004630,.0003099,97.6177,316.7755,181.4044,178.7215,0,U,54687,999,19123,.49181E-3,.95955E-3,0
DONGPO 10,2022-167H,2026-05-12T20:21:08.555616,15.33722223,.0004162,97.6918,301.5185,227.7432,132.3457,0,U,54689,999,18994,.21678E-3,.6985E-4,0
JILIN-1 GAOFEN 03D48,2022-167P,2026-05-12T20:42:38.226816,15.34454843,.0005429,97.6852,300.9013,234.2749,125.7988,0,U,54695,999,18997,.2198E-3,.7252E-4,0
STAR VIBE,2023-001A,2026-05-12T20:53:38.122368,15.41634743,.0004655,97.3195,197.2151,227.4134,132.6721,0,U,55009,999,18678,.22674E-3,.9466E-4,0
BRO-8,2023-001C,2026-05-12T19:35:16.794240,15.46915779,.0004974,97.3242,197.5467,234.8471,125.2313,0,U,55011,999,18673,.38487E-3,.19312E-3,0
CONNECTA T1.2,2023-001D,2026-05-12T10:54:55.253952,15.48146907,.0005957,97.3298,202.5794,208.8226,151.2696,0,U,55012,999,18701,.42103E-3,.22068E-3,0
BIRKELAND,2023-001G,2026-05-12T20:35:11.847264,15.39443387,.0005748,97.3367,200.7519,219.4046,140.6782,0,U,55015,999,18691,.19091E-3,.7399E-4,0
